[Satellite]
VERSION=1.1
NAME=STARLINK-5036
NICKNAME=STARLINK-5036
TLE1=1 53917U 22119AH  22296.91667824 -.00058841  00000+0 -41714-3 0  9991
TLE2=2 53917  53.2151 109.7084 0001058  57.7863  46.0156 15.73235301  1309
STATUS=0
